[{"OBJECT_NAME":"STARLINK-34722","OBJECT_ID":"2025-152K","EPOCH":"2026-03-09T14:45:40.819392","MEAN_MOTION":15.05651695,"ECCENTRICITY":0.0001517,"INCLINATION":97.6029,"RA_OF_ASC_NODE":285.3943,"ARG_OF_PERICENTER":86.9486,"MEAN_ANOMALY":273.1914,"EPHEMERIS_TYPE":0,"CLASSIFICATION_TYPE":"U","NORAD_CAT_ID":64851,"ELEMENT_SET_NO":999,"REV_AT_EPOCH":3540,"BSTAR":0.00028217,"MEAN_MOTION_DOT":4.013e-5,"MEAN_MOTION_DDOT":0},{"OBJECT_NAME":"CZ-6A DEB","OBJECT_ID":"2022-151MM","EPOCH":"2026-03-09T16:36:35.308512","MEAN_MOTION":15.08432741,"ECCENTRICITY":0.0037582,"INCLINATION":98.6255,"RA_OF_ASC_NODE":147.7512,"ARG_OF_PERICENTER":182.2642,"MEAN_ANOMALY":177.8419,"EPHEMERIS_TYPE":0,"CLASSIFICATION_TYPE":"U","NORAD_CAT_ID":54585,"ELEMENT_SET_NO":999,"REV_AT_EPOCH":10505,"BSTAR":0.0062350664,"MEAN_MOTION_DOT":0.00099853,"MEAN_MOTION_DDOT":0}]
